[{"OBJECT_NAME":"QIANFAN-86","OBJECT_ID":"2025-046P","EPOCH":"2026-03-05T17:30:29.791008","MEAN_MOTION":13.51001698,"ECCENTRICITY":0.0009274,"INCLINATION":88.9762,"RA_OF_ASC_NODE":311.2142,"ARG_OF_PERICENTER":251.8575,"MEAN_ANOMALY":108.1566,"EPHEMERIS_TYPE":0,"CLASSIFICATION_TYPE":"U","NORAD_CAT_ID":63172,"ELEMENT_SET_NO":999,"REV_AT_EPOCH":5875,"BSTAR":0.00031429,"MEAN_MOTION_DOT":2.15e-6,"MEAN_MOTION_DDOT":0},{"OBJECT_NAME":"QIANFAN-87","OBJECT_ID":"2025-046Q","EPOCH":"2026-03-05T16:49:08.253408","MEAN_MOTION":13.51009966,"ECCENTRICITY":0.0009963,"INCLINATION":88.9758,"RA_OF_ASC_NODE":311.3255,"ARG_OF_PERICENTER":246.1858,"MEAN_ANOMALY":113.8249,"EPHEMERIS_TYPE":0,"CLASSIFICATION_TYPE":"U","NORAD_CAT_ID":63173,"ELEMENT_SET_NO":999,"REV_AT_EPOCH":5868,"BSTAR":0.00030933,"MEAN_MOTION_DOT":2.12e-6,"MEAN_MOTION_DDOT":0},{"OBJECT_NAME":"QIANFAN-88","OBJECT_ID":"2025-046R","EPOCH":"2026-03-05T17:12:38.667744","MEAN_MOTION":13.50998354,"ECCENTRICITY":0.001034,"INCLINATION":88.9761,"RA_OF_ASC_NODE":311.2805,"ARG_OF_PERICENTER":255.9212,"MEAN_ANOMALY":104.079,"EPHEMERIS_TYPE":0,"CLASSIFICATION_TYPE":"U","NORAD_CAT_ID":63174,"ELEMENT_SET_NO":999,"REV_AT_EPOCH":5871,"BSTAR":0.00031457,"MEAN_MOTION_DOT":2.15e-6,"MEAN_MOTION_DDOT":0},{"OBJECT_NAME":"QIANFAN-89","OBJECT_ID":"2025-046S","EPOCH":"2026-03-05T18:06:11.743776","MEAN_MOTION":13.510089,"ECCENTRICITY":0.0014832,"INCLINATION":88.9761,"RA_OF_ASC_NODE":311.4658,"ARG_OF_PERICENTER":244.9727,"MEAN_ANOMALY":114.9884,"EPHEMERIS_TYPE":0,"CLASSIFICATION_TYPE":"U","NORAD_CAT_ID":63175,"ELEMENT_SET_NO":999,"REV_AT_EPOCH":5861,"BSTAR":0.00029924,"MEAN_MOTION_DOT":2.05e-6,"MEAN_MOTION_DDOT":0},{"OBJECT_NAME":"QIANFAN-90","OBJECT_ID":"2025-046T","EPOCH":"2026-03-05T17:01:04.093824","MEAN_MOTION":13.51008724,"ECCENTRICITY":0.0011798,"INCLINATION":88.9761,"RA_OF_ASC_NODE":311.4429,"ARG_OF_PERICENTER":243.0422,"MEAN_ANOMALY":116.9525,"EPHEMERIS_TYPE":0,"CLASSIFICATION_TYPE":"U","NORAD_CAT_ID":63176,"ELEMENT_SET_NO":999,"REV_AT_EPOCH":5862,"BSTAR":0.00033231,"MEAN_MOTION_DOT":2.27e-6,"MEAN_MOTION_DDOT":0},{"OBJECT_NAME":"QIANFAN-91","OBJECT_ID":"2025-233A","EPOCH":"2026-03-05T17:47:55.484160","MEAN_MOTION":13.51004507,"ECCENTRICITY":0.0001947,"INCLINATION":88.993,"RA_OF_ASC_NODE":53.6485,"ARG_OF_PERICENTER":92.3221,"MEAN_ANOMALY":267.8153,"EPHEMERIS_TYPE":0,"CLASSIFICATION_TYPE":"U","NORAD_CAT_ID":66033,"ELEMENT_SET_NO":999,"REV_AT_EPOCH":1921,"BSTAR":2.999e-5,"MEAN_MOTION_DOT":3.1e-7,"MEAN_MOTION_DDOT":0},{"OBJECT_NAME":"QIANFAN-92","OBJECT_ID":"2025-233B","EPOCH":"2026-03-05T17:59:41.063712","MEAN_MOTION":13.51005931,"ECCENTRICITY":0.0001947,"INCLINATION":88.9914,"RA_OF_ASC_NODE":53.6364,"ARG_OF_PERICENTER":85.8838,"MEAN_ANOMALY":274.2535,"EPHEMERIS_TYPE":0,"CLASSIFICATION_TYPE":"U","NORAD_CAT_ID":66034,"ELEMENT_SET_NO":999,"REV_AT_EPOCH":1921,"BSTAR":2.3428e-5,"MEAN_MOTION_DOT":2.7e-7,"MEAN_MOTION_DDOT":0},{"OBJECT_NAME":"QIANFAN-93","OBJECT_ID":"2025-233C","EPOCH":"2026-03-05T18:11:32.406144","MEAN_MOTION":13.51004941,"ECCENTRICITY":0.0001921,"INCLINATION":88.9941,"RA_OF_ASC_NODE":53.6594,"ARG_OF_PERICENTER":90.8136,"MEAN_ANOMALY":269.3236,"EPHEMERIS_TYPE":0,"CLASSIFICATION_TYPE":"U","NORAD_CAT_ID":66035,"ELEMENT_SET_NO":999,"REV_AT_EPOCH":1921,"BSTAR":4.764e-5,"MEAN_MOTION_DOT":4.3e-7,"MEAN_MOTION_DDOT":0},{"OBJECT_NAME":"QIANFAN-94","OBJECT_ID":"2025-233D","EPOCH":"2026-03-05T17:53:32.311104","MEAN_MOTION":13.50991933,"ECCENTRICITY":0.0002051,"INCLINATION":88.9937,"RA_OF_ASC_NODE":53.5675,"ARG_OF_PERICENTER":87.9488,"MEAN_ANOMALY":272.1898,"EPHEMERIS_TYPE":0,"CLASSIFICATION_TYPE":"U","NORAD_CAT_ID":66036,"ELEMENT_SET_NO":999,"REV_AT_EPOCH":1926,"BSTAR":3.8275e-5,"MEAN_MOTION_DOT":3.7e-7,"MEAN_MOTION_DDOT":0},{"OBJECT_NAME":"QIANFAN-95","OBJECT_ID":"2025-233E","EPOCH":"2026-03-05T18:05:25.360800","MEAN_MOTION":13.51015282,"ECCENTRICITY":0.0002059,"INCLINATION":88.9935,"RA_OF_ASC_NODE":53.1129,"ARG_OF_PERICENTER":93.4766,"MEAN_ANOMALY":266.662,"EPHEMERIS_TYPE":0,"CLASSIFICATION_TYPE":"U","NORAD_CAT_ID":66037,"ELEMENT_SET_NO":999,"REV_AT_EPOCH":1951,"BSTAR":2.5033e-5,"MEAN_MOTION_DOT":2.8e-7,"MEAN_MOTION_DDOT":0},{"OBJECT_NAME":"QIANFAN-96","OBJECT_ID":"2025-233F","EPOCH":"2026-03-05T16:54:34.778016","MEAN_MOTION":13.51004716,"ECCENTRICITY":0.0001945,"INCLINATION":88.9932,"RA_OF_ASC_NODE":53.6639,"ARG_OF_PERICENTER":94.6244,"MEAN_ANOMALY":265.5129,"EPHEMERIS_TYPE":0,"CLASSIFICATION_TYPE":"U","NORAD_CAT_ID":66038,"ELEMENT_SET_NO":999,"REV_AT_EPOCH":1920,"BSTAR":3.7803e-5,"MEAN_MOTION_DOT":3.6e-7,"MEAN_MOTION_DDOT":0},{"OBJECT_NAME":"QIANFAN-97","OBJECT_ID":"2025-233G","EPOCH":"2026-03-05T18:17:30.616224","MEAN_MOTION":13.51004099,"ECCENTRICITY":0.0001944,"INCLINATION":88.9936,"RA_OF_ASC_NODE":53.6387,"ARG_OF_PERICENTER":92.1537,"MEAN_ANOMALY":267.9837,"EPHEMERIS_TYPE":0,"CLASSIFICATION_TYPE":"U","NORAD_CAT_ID":66039,"ELEMENT_SET_NO":999,"REV_AT_EPOCH":1922,"BSTAR":2.9084e-5,"MEAN_MOTION_DOT":3.1e-7,"MEAN_MOTION_DDOT":0},{"OBJECT_NAME":"QIANFAN-98","OBJECT_ID":"2025-233H","EPOCH":"2026-03-05T18:29:17.087424","MEAN_MOTION":13.51004594,"ECCENTRICITY":0.000245,"INCLINATION":88.9925,"RA_OF_ASC_NODE":53.38,"ARG_OF_PERICENTER":85.1727,"MEAN_ANOMALY":274.9704,"EPHEMERIS_TYPE":0,"CLASSIFICATION_TYPE":"U","NORAD_CAT_ID":66040,"ELEMENT_SET_NO":999,"REV_AT_EPOCH":1936,"BSTAR":5.2689e-5,"MEAN_MOTION_DOT":4.6e-7,"MEAN_MOTION_DDOT":0},{"OBJECT_NAME":"QIANFAN-99","OBJECT_ID":"2025-233J","EPOCH":"2026-03-05T16:48:37.633248","MEAN_MOTION":13.51004875,"ECCENTRICITY":0.0002348,"INCLINATION":88.9936,"RA_OF_ASC_NODE":53.6484,"ARG_OF_PERICENTER":88.7756,"MEAN_ANOMALY":271.3664,"EPHEMERIS_TYPE":0,"CLASSIFICATION_TYPE":"U","NORAD_CAT_ID":66041,"ELEMENT_SET_NO":999,"REV_AT_EPOCH":1921,"BSTAR":5.3075e-5,"MEAN_MOTION_DOT":4.6e-7,"MEAN_MOTION_DDOT":0},{"OBJECT_NAME":"QIANFAN-100","OBJECT_ID":"2025-233K","EPOCH":"2026-03-05T18:23:23.213760","MEAN_MOTION":13.51005676,"ECCENTRICITY":0.0001925,"INCLINATION":88.9947,"RA_OF_ASC_NODE":53.557,"ARG_OF_PERICENTER":91.3612,"MEAN_ANOMALY":268.776,"EPHEMERIS_TYPE":0,"CLASSIFICATION_TYPE":"U","NORAD_CAT_ID":66042,"ELEMENT_SET_NO":999,"REV_AT_EPOCH":1927,"BSTAR":5.4183e-5,"MEAN_MOTION_DOT":4.7e-7,"MEAN_MOTION_DDOT":0},{"OBJECT_NAME":"QIANFAN-101","OBJECT_ID":"2025-233L","EPOCH":"2026-03-05T16:59:29.266368","MEAN_MOTION":14.26734706,"ECCENTRICITY":0.0016897,"INCLINATION":88.9936,"RA_OF_ASC_NODE":52.4437,"ARG_OF_PERICENTER":118.7054,"MEAN_ANOMALY":241.584,"EPHEMERIS_TYPE":0,"CLASSIFICATION_TYPE":"U","NORAD_CAT_ID":66043,"ELEMENT_SET_NO":999,"REV_AT_EPOCH":1987,"BSTAR":0.00030014,"MEAN_MOTION_DOT":7.42e-6,"MEAN_MOTION_DDOT":0},{"OBJECT_NAME":"QIANFAN-102","OBJECT_ID":"2025-233M","EPOCH":"2026-03-05T18:52:49.609056","MEAN_MOTION":13.50992479,"ECCENTRICITY":0.0002102,"INCLINATION":88.9934,"RA_OF_ASC_NODE":53.5515,"ARG_OF_PERICENTER":88.5669,"MEAN_ANOMALY":271.5723,"EPHEMERIS_TYPE":0,"CLASSIFICATION_TYPE":"U","NORAD_CAT_ID":66044,"ELEMENT_SET_NO":999,"REV_AT_EPOCH":1927,"BSTAR":3.324e-5,"MEAN_MOTION_DOT":3.3e-7,"MEAN_MOTION_DDOT":0}]
