QIANFAN-86              
1 63172U 25046P   26064.72951147  .00000215  00000+0  31429-3 0  9999
2 63172  88.9762 311.2142 0009274 251.8575 108.1566 13.51001698 58756
QIANFAN-87              
1 63173U 25046Q   26064.70078997  .00000212  00000+0  30933-3 0  9997
2 63173  88.9758 311.3255 0009963 246.1858 113.8249 13.51009966 58683
QIANFAN-88              
1 63174U 25046R   26064.71711421  .00000215  00000+0  31457-3 0  9990
2 63174  88.9761 311.2805 0010340 255.9212 104.0790 13.50998354 58715
QIANFAN-89              
1 63175U 25046S   26064.75430259  .00000205  00000+0  29924-3 0  9997
2 63175  88.9761 311.4658 0014832 244.9727 114.9884 13.51008900 58616
QIANFAN-90              
1 63176U 25046T   26064.70907516  .00000227  00000+0  33231-3 0  9998
2 63176  88.9761 311.4429 0011798 243.0422 116.9525 13.51008724 58622
QIANFAN-91              
1 66033U 25233A   26064.74161440  .00000031  00000+0  29990-4 0  9994
2 66033  88.9930  53.6485 0001947  92.3221 267.8153 13.51004507 19219
QIANFAN-92              
1 66034U 25233B   26064.74978083  .00000027  00000+0  23428-4 0  9999
2 66034  88.9914  53.6364 0001947  85.8838 274.2535 13.51005931 19217
QIANFAN-93              
1 66035U 25233C   26064.75801396  .00000043  00000+0  47640-4 0  9993
2 66035  88.9941  53.6594 0001921  90.8136 269.3236 13.51004941 19215
QIANFAN-94              
1 66036U 25233D   26064.74551286  .00000037  00000+0  38275-4 0  9990
2 66036  88.9937  53.5675 0002051  87.9488 272.1898 13.50991933 19268
QIANFAN-95              
1 66037U 25233E   26064.75376575  .00000028  00000+0  25033-4 0  9996
2 66037  88.9935  53.1129 0002059  93.4766 266.6620 13.51015282 19510
QIANFAN-96              
1 66038U 25233F   26064.70456919  .00000036  00000+0  37803-4 0  9990
2 66038  88.9932  53.6639 0001945  94.6244 265.5129 13.51004716 19204
QIANFAN-97              
1 66039U 25233G   26064.76215991  .00000031  00000+0  29084-4 0  9997
2 66039  88.9936  53.6387 0001944  92.1537 267.9837 13.51004099 19224
QIANFAN-98              
1 66040U 25233H   26064.77033666  .00000046  00000+0  52689-4 0  9990
2 66040  88.9925  53.3800 0002450  85.1727 274.9704 13.51004594 19363
QIANFAN-99              
1 66041U 25233J   26064.70043557  .00000046  00000+0  53075-4 0  9994
2 66041  88.9936  53.6484 0002348  88.7756 271.3664 13.51004875 19216
QIANFAN-100             
1 66042U 25233K   26064.76624090  .00000047  00000+0  54183-4 0  9990
2 66042  88.9947  53.5570 0001925  91.3612 268.7760 13.51005676 19278
QIANFAN-101             
1 66043U 25233L   26064.70797762  .00000742  00000+0  30014-3 0  9990
2 66043  88.9936  52.4437 0016897 118.7054 241.5840 14.26734706 19875
QIANFAN-102             
1 66044U 25233M   26064.78668529  .00000033  00000+0  33240-4 0  9995
2 66044  88.9934  53.5515 0002102  88.5669 271.5723 13.50992479 19279
